CCSDS_OMM_VERS = 2.0
CREATION_DATE  = 
ORIGINATOR     = 

OBJECT_NAME    = ARIANE 40 R/B
OBJECT_ID      = 1990-005H
CENTER_NAME    = EARTH
REF_FRAME      = TEME
TIME_SYSTEM    = UTC
MEAN_ELEMENT_THEORY = SGP/SGP4

EPOCH          = 2025-11-28T03:29:12.662880
MEAN_MOTION    = 14.39781599
ECCENTRICITY   = .0010852
INCLINATION    = 98.3263
RA_OF_ASC_NODE = 30.7344
ARG_OF_PERICENTER = 145.6984
MEAN_ANOMALY   = 214.4907

EPHEMERIS_TYPE = 0
CLASSIFICATION_TYPE = U
NORAD_CAT_ID   = 20443
ELEMENT_SET_NO = 999
REV_AT_EPOCH   = 87819
BSTAR          = .13512E-3
MEAN_MOTION_DOT = .382E-5
MEAN_MOTION_DDOT = 0

CCSDS_OMM_VERS = 2.0
CREATION_DATE  = 
ORIGINATOR     = 

OBJECT_NAME    = DELTA 2 R/B(1)
OBJECT_ID      = 1990-008B
CENTER_NAME    = EARTH
REF_FRAME      = TEME
TIME_SYSTEM    = UTC
MEAN_ELEMENT_THEORY = SGP/SGP4

EPOCH          = 2025-11-27T16:32:14.632800
MEAN_MOTION    = 15.43700532
ECCENTRICITY   = .01137278
INCLINATION    = 35.6051
RA_OF_ASC_NODE = 117.6077
ARG_OF_PERICENTER = 40.7501
MEAN_ANOMALY   = 320.1672

EPHEMERIS_TYPE = 0
CLASSIFICATION_TYPE = U
NORAD_CAT_ID   = 20453
ELEMENT_SET_NO = 999
REV_AT_EPOCH   = 91030
BSTAR          = .61353313E-3
MEAN_MOTION_DOT = .36519E-3
MEAN_MOTION_DDOT = 0

CCSDS_OMM_VERS = 2.0
CREATION_DATE  = 
ORIGINATOR     = 

OBJECT_NAME    = COSMOS 2058
OBJECT_ID      = 1990-010A
CENTER_NAME    = EARTH
REF_FRAME      = TEME
TIME_SYSTEM    = UTC
MEAN_ELEMENT_THEORY = SGP/SGP4

EPOCH          = 2025-11-27T20:26:05.686080
MEAN_MOTION    = 15.10271670
ECCENTRICITY   = .0009108
INCLINATION    = 82.4630
RA_OF_ASC_NODE = 147.6775
ARG_OF_PERICENTER = 334.4345
MEAN_ANOMALY   = 25.6433

EPHEMERIS_TYPE = 0
CLASSIFICATION_TYPE = U
NORAD_CAT_ID   = 20465
ELEMENT_SET_NO = 999
REV_AT_EPOCH   = 92686
BSTAR          = .28559E-3
MEAN_MOTION_DOT = .4705E-4
MEAN_MOTION_DDOT = 0

CCSDS_OMM_VERS = 2.0
CREATION_DATE  = 
ORIGINATOR     = 

OBJECT_NAME    = SL-14 R/B
OBJECT_ID      = 1990-010B
CENTER_NAME    = EARTH
REF_FRAME      = TEME
TIME_SYSTEM    = UTC
MEAN_ELEMENT_THEORY = SGP/SGP4

EPOCH          = 2025-11-28T02:36:09.572832
MEAN_MOTION    = 14.83450799
ECCENTRICITY   = .001826
INCLINATION    = 82.5028
RA_OF_ASC_NODE = 2.7892
ARG_OF_PERICENTER = 275.0404
MEAN_ANOMALY   = 84.8726

EPHEMERIS_TYPE = 0
CLASSIFICATION_TYPE = U
NORAD_CAT_ID   = 20466
ELEMENT_SET_NO = 999
REV_AT_EPOCH   = 91342
BSTAR          = .62144E-4
MEAN_MOTION_DOT = .535E-5
MEAN_MOTION_DDOT = 0

CCSDS_OMM_VERS = 2.0
CREATION_DATE  = 
ORIGINATOR     = 

OBJECT_NAME    = SL-14 R/B
OBJECT_ID      = 1990-018B
CENTER_NAME    = EARTH
REF_FRAME      = TEME
TIME_SYSTEM    = UTC
MEAN_ELEMENT_THEORY = SGP/SGP4

EPOCH          = 2025-11-28T00:41:13.836768
MEAN_MOTION    = 14.82023271
ECCENTRICITY   = .0017904
INCLINATION    = 82.5199
RA_OF_ASC_NODE = 318.1161
ARG_OF_PERICENTER = 68.6430
MEAN_ANOMALY   = 291.6693

EPHEMERIS_TYPE = 0
CLASSIFICATION_TYPE = U
NORAD_CAT_ID   = 20511
ELEMENT_SET_NO = 999
REV_AT_EPOCH   = 90752
BSTAR          = .6835E-4
MEAN_MOTION_DOT = .567E-5
MEAN_MOTION_DDOT = 0

CCSDS_OMM_VERS = 2.0
CREATION_DATE  = 
ORIGINATOR     = 

OBJECT_NAME    = HST
OBJECT_ID      = 1990-037B
CENTER_NAME    = EARTH
REF_FRAME      = TEME
TIME_SYSTEM    = UTC
MEAN_ELEMENT_THEORY = SGP/SGP4

EPOCH          = 2025-11-28T03:51:39.409920
MEAN_MOTION    = 15.27745701
ECCENTRICITY   = .0002095
INCLINATION    = 28.4701
RA_OF_ASC_NODE = 11.6949
ARG_OF_PERICENTER = 84.1841
MEAN_ANOMALY   = 275.8992

EPHEMERIS_TYPE = 0
CLASSIFICATION_TYPE = U
NORAD_CAT_ID   = 20580
ELEMENT_SET_NO = 999
REV_AT_EPOCH   = 75776
BSTAR          = .28563E-3
MEAN_MOTION_DOT = .8193E-4
MEAN_MOTION_DDOT = 0

CCSDS_OMM_VERS = 2.0
CREATION_DATE  = 
ORIGINATOR     = 

OBJECT_NAME    = SL-16 R/B
OBJECT_ID      = 1990-046B
CENTER_NAME    = EARTH
REF_FRAME      = TEME
TIME_SYSTEM    = UTC
MEAN_ELEMENT_THEORY = SGP/SGP4

EPOCH          = 2025-11-27T21:36:41.689728
MEAN_MOTION    = 14.14993677
ECCENTRICITY   = .0012151
INCLINATION    = 70.9966
RA_OF_ASC_NODE = 151.6851
ARG_OF_PERICENTER = 101.0934
MEAN_ANOMALY   = 259.1555

EPHEMERIS_TYPE = 0
CLASSIFICATION_TYPE = U
NORAD_CAT_ID   = 20625
ELEMENT_SET_NO = 999
REV_AT_EPOCH   = 83399
BSTAR          = .2017E-3
MEAN_MOTION_DOT = .343E-5
MEAN_MOTION_DDOT = 0

CCSDS_OMM_VERS = 2.0
CREATION_DATE  = 
ORIGINATOR     = 

OBJECT_NAME    = COSMOS 2084
OBJECT_ID      = 1990-055A
CENTER_NAME    = EARTH
REF_FRAME      = TEME
TIME_SYSTEM    = UTC
MEAN_ELEMENT_THEORY = SGP/SGP4

EPOCH          = 2025-11-28T01:59:22.014816
MEAN_MOTION    = 15.04879444
ECCENTRICITY   = .0033969
INCLINATION    = 62.7913
RA_OF_ASC_NODE = 321.9293
ARG_OF_PERICENTER = 172.8872
MEAN_ANOMALY   = 187.2718

EPHEMERIS_TYPE = 0
CLASSIFICATION_TYPE = U
NORAD_CAT_ID   = 20663
ELEMENT_SET_NO = 999
REV_AT_EPOCH   = 92102
BSTAR          = .23699E-3
MEAN_MOTION_DOT = .3205E-4
MEAN_MOTION_DDOT = 0

CCSDS_OMM_VERS = 2.0
CREATION_DATE  = 
ORIGINATOR     = 

OBJECT_NAME    = SL-6 R/B(2)
OBJECT_ID      = 1990-055D
CENTER_NAME    = EARTH
REF_FRAME      = TEME
TIME_SYSTEM    = UTC
MEAN_ELEMENT_THEORY = SGP/SGP4

EPOCH          = 2025-11-28T01:32:17.295648
MEAN_MOTION    = 15.02975029
ECCENTRICITY   = .0011514
INCLINATION    = 62.7829
RA_OF_ASC_NODE = 239.2765
ARG_OF_PERICENTER = 297.0045
MEAN_ANOMALY   = 62.9878

EPHEMERIS_TYPE = 0
CLASSIFICATION_TYPE = U
NORAD_CAT_ID   = 20666
ELEMENT_SET_NO = 999
REV_AT_EPOCH   = 92291
BSTAR          = .21326E-3
MEAN_MOTION_DOT = .2689E-4
MEAN_MOTION_DDOT = 0

CCSDS_OMM_VERS = 2.0
CREATION_DATE  = 
ORIGINATOR     = 

OBJECT_NAME    = SL-8 R/B
OBJECT_ID      = 1990-078B
CENTER_NAME    = EARTH
REF_FRAME      = TEME
TIME_SYSTEM    = UTC
MEAN_ELEMENT_THEORY = SGP/SGP4

EPOCH          = 2025-11-28T02:44:46.460832
MEAN_MOTION    = 14.85024918
ECCENTRICITY   = .0376723
INCLINATION    = 82.9053
RA_OF_ASC_NODE = 342.3927
ARG_OF_PERICENTER = 355.0119
MEAN_ANOMALY   = 4.7378

EPHEMERIS_TYPE = 0
CLASSIFICATION_TYPE = U
NORAD_CAT_ID   = 20775
ELEMENT_SET_NO = 999
REV_AT_EPOCH   = 79420
BSTAR          = .86831E-3
MEAN_MOTION_DOT = .28035E-3
MEAN_MOTION_DDOT = 0

CCSDS_OMM_VERS = 2.0
CREATION_DATE  = 
ORIGINATOR     = 

OBJECT_NAME    = SL-8 R/B
OBJECT_ID      = 1991-006B
CENTER_NAME    = EARTH
REF_FRAME      = TEME
TIME_SYSTEM    = UTC
MEAN_ELEMENT_THEORY = SGP/SGP4

EPOCH          = 2025-11-27T20:39:38.323872
MEAN_MOTION    = 13.77487551
ECCENTRICITY   = .0021774
INCLINATION    = 82.9430
RA_OF_ASC_NODE = 245.7793
ARG_OF_PERICENTER = 323.7078
MEAN_ANOMALY   = 100.4669

EPHEMERIS_TYPE = 0
CLASSIFICATION_TYPE = U
NORAD_CAT_ID   = 21088
ELEMENT_SET_NO = 999
REV_AT_EPOCH   = 75005
BSTAR          = .89759E-4
MEAN_MOTION_DOT = .104E-5
MEAN_MOTION_DDOT = 0

CCSDS_OMM_VERS = 2.0
CREATION_DATE  = 
ORIGINATOR     = 

OBJECT_NAME    = OKEAN-3
OBJECT_ID      = 1991-039A
CENTER_NAME    = EARTH
REF_FRAME      = TEME
TIME_SYSTEM    = UTC
MEAN_ELEMENT_THEORY = SGP/SGP4

EPOCH          = 2025-11-27T18:42:37.978272
MEAN_MOTION    = 15.03969968
ECCENTRICITY   = .00137287
INCLINATION    = 82.5176
RA_OF_ASC_NODE = 75.5245
ARG_OF_PERICENTER = 320.9082
MEAN_ANOMALY   = 39.1151

EPHEMERIS_TYPE = 0
CLASSIFICATION_TYPE = U
NORAD_CAT_ID   = 21397
ELEMENT_SET_NO = 999
REV_AT_EPOCH   = 84971
BSTAR          = .31912006E-3
MEAN_MOTION_DOT = .4439E-4
MEAN_MOTION_DDOT = 0

