ARIANE 40 R/B           
1 20443U 90005H   25332.14528545  .00000382  00000+0  13512-3 0  9993
2 20443  98.3263  30.7344 0010852 145.6984 214.4907 14.39781599878196
DELTA 2 R/B(1)          
1 20453U 90008B   25331.68905825  .00036519  00000+0  61353-3 0  9992
2 20453  35.6051 117.6077 0113727  40.7501 320.1672 15.43700532910307
COSMOS 2058             
1 20465U 90010A   25331.85145470  .00004705  00000+0  28559-3 0  9992
2 20465  82.4630 147.6775 0009108 334.4345  25.6433 15.10271670926867
SL-14 R/B               
1 20466U 90010B   25332.10844413  .00000535  00000+0  62144-4 0  9991
2 20466  82.5028   2.7892 0018260 275.0404  84.8726 14.83450799913426
SL-14 R/B               
1 20511U 90018B   25332.02863237  .00000567  00000+0  68350-4 0  9996
2 20511  82.5199 318.1161 0017904  68.6430 291.6693 14.82023271907523
HST                     
1 20580U 90037B   25332.16087280  .00008193  00000+0  28563-3 0  9998
2 20580  28.4701  11.6949 0002095  84.1841 275.8992 15.27745701757764
SL-16 R/B               
1 20625U 90046B   25331.90048252  .00000343  00000+0  20170-3 0  9990
2 20625  70.9966 151.6851 0012151 101.0934 259.1555 14.14993677833994
COSMOS 2084             
1 20663U 90055A   25332.08289369  .00003205  00000+0  23699-3 0  9997
2 20663  62.7913 321.9293 0033969 172.8872 187.2718 15.04879444921025
SL-6 R/B(2)             
1 20666U 90055D   25332.06408907  .00002689  00000+0  21326-3 0  9999
2 20666  62.7829 239.2765 0011514 297.0045  62.9878 15.02975029922912
SL-8 R/B                
1 20775U 90078B   25332.11442663  .00028035  00000+0  86831-3 0  9993
2 20775  82.9053 342.3927 0376723 355.0119   4.7378 14.85024918794205
SL-8 R/B                
1 21088U 91006B   25331.86086023  .00000104  00000+0  89759-4 0  9998
2 21088  82.9430 245.7793 0021774 323.7078 100.4669 13.77487551750056
OKEAN-3                 
1 21397U 91039A   25331.77960623  .00004439  00000+0  31912-3 0  9996
2 21397  82.5176  75.5245 0013728 320.9082  39.1151 15.03969968849711
